#Pass ID: 20260115_052704_FENGYUN 3D
#Satellite: FENGYUN 3D
#Configuration: FENGYUN 3D
#almurnet v.1.7.20240730
#Start time: 2026-01-15 05:27:04

#Version: 2.2.20231116
#Station: X_Chapaevo_01
#Location: 129.39018 lon 61.66317 lat
#TLE: 1 43010U 17072A   26014.22831475  .00000226  00000+0  12883-3 0  9994
#TLE: 2 43010  98.9934 346.0326 0002309 109.2304 250.9121 14.19696287423146

#Time	Az	El	Level	Level2	SNR	BER	BlckErr	Temp	State	Recorded	gain1	gain2
#2026-01-15 05:27:04.135000	device inactive

#Closed at: 2026-01-15 05:27:05
#Recorded file [0 MB]: 